     2.10           GLONASS NAV DATA                        RINEX VERSION / TYPE
SPIDER V4,0,0,3554                      2015 03 16 00:29    PGM / RUN BY / DATE 
  2015     2    14   3.259629011154e-009                    CORR TO SYSTEM TIME 
    16                                                      LEAP SECONDS        
                                                            END OF HEADER       
 5 15 02 14 10 15  0.0 2.261251211166D-06 0.000000000000D+00 3.600000000000D+04
    1.100581591797D+04-3.009653091431D-01-0.000000000000D+00 0.000000000000D+00
   -9.363864746094D+03 2.863565444946D+00 0.000000000000D+00 1.000000000000D+00
    2.100315234375D+04 1.433987617493D+00-2.793967723846D-09 0.000000000000D+00
13 15 02 14 10 15  0.0-4.717865958810D-04-9.094947017729D-13 3.600000000000D+04
   -2.354833984375D+03-2.537014961243D+00-2.793967723846D-09 0.000000000000D+00
    1.110358056641D+04-1.838857650757D+00 0.000000000000D+00-2.000000000000D+00
    2.282703857422D+04 6.325635910034D-01-9.313225746155D-10 0.000000000000D+00
14 15 02 14 10 15  0.0 1.313295215368D-04 4.547473508865D-12 3.600000000000D+04
    1.363968066406D+04-1.350693702698D+00-9.313225746155D-10 0.000000000000D+00
    1.708356835938D+04-1.219778060913D+00-0.000000000000D+00-7.000000000000D+00
    1.318232373047D+04 2.968212127686D+00-1.862645149231D-09 0.000000000000D+00
15 15 02 14 10 15  0.0 3.899633884430D-05-0.000000000000D+00 3.600000000000D+04
    2.128483935547D+04 4.728651046753D-01 9.313225746155D-10 0.000000000000D+00
    1.362005175781D+04 5.472278594971D-02-1.862645149231D-09 0.000000000000D+00
   -3.014866210938D+03 3.584332466125D+00-9.313225746155D-10 0.000000000000D+00
19 15 02 14 10 15  0.0-1.183124259114D-04-9.094947017729D-13 3.600000000000D+04
    2.361363720703D+04-2.491760253906D-01 3.725290298462D-09 0.000000000000D+00
   -9.547104492188D+03-1.075534820557D-01-9.313225746155D-10 3.000000000000D+00
   -1.350284179688D+03-3.580988883972D+00-1.862645149231D-09 0.000000000000D+00
20 15 02 14 10 15  0.0-1.583611592650D-04-9.094947017729D-13 3.600000000000D+04
    1.469226513672D+04 1.872093200684D+00 9.313225746155D-10 0.000000000000D+00
   -1.411318603516D+04-9.744892120361D-01-0.000000000000D+00 2.000000000000D+00
    1.539603808594D+04-2.676843643188D+00-2.793967723846D-09 0.000000000000D+00
21 15 02 14 10 15  0.0-1.281499862671D-06 1.818989403546D-12 3.654000000000D+04
   -1.471416015625D+03 2.853762626648D+00-9.313225746155D-10 0.000000000000D+00
   -1.112399023438D+04-1.301572799683D+00 9.313225746155D-10 4.000000000000D+00
    2.291150976563D+04-4.513282775879D-01-1.862645149231D-09 8.000000000000D+00
21 15 02 14 10 45  0.0-1.278705894947D-06 1.818989403546D-12 3.780000000000D+04
    3.325983886719D+03 2.437314987183D+00-0.000000000000D+00 0.000000000000D+00
   -1.375104394531D+04-1.584286689758D+00 0.000000000000D+00 4.000000000000D+00
    2.122427246094D+04-1.411302566528D+00-2.793967723846D-09 8.000000000000D+00
 5 15 02 14 10 45  0.0 2.262182533741D-06 0.000000000000D+00 3.780000000000D+04
    1.083580566406D+04 1.240158081055D-01-0.000000000000D+00 0.000000000000D+00
   -3.939847167969D+03 3.113918304443D+00 0.000000000000D+00 1.000000000000D+00
    2.273776074219D+04 4.808301925659D-01-2.793967723846D-09 0.000000000000D+00
 4 15 02 14 10 45  0.0 1.094499602914D-04 9.094947017729D-13 3.780000000000D+04
    9.448442871094D+03 1.981105804443D-01-1.862645149231D-09 0.000000000000D+00
    1.476657763672D+04 2.530155181885D+00 0.000000000000D+00 6.000000000000D+00
    1.853408789063D+04-2.118155479431D+00-9.313225746155D-10 0.000000000000D+00
14 15 02 14 10 45  0.0 1.313379034400D-04 4.547473508865D-12 3.780000000000D+04
    1.052433544922D+04-2.096972465515D+00-1.862645149231D-09 0.000000000000D+00
    1.477410498047D+04-1.300704956055D+00 0.000000000000D+00-7.000000000000D+00
    1.794754492188D+04 2.292035102844D+00-1.862645149231D-09 0.000000000000D+00
15 15 02 14 10 45  0.0 3.899633884430D-05-0.000000000000D+00 3.780000000000D+04
    2.145075537109D+04-3.106060028076D-01 0.000000000000D+00 0.000000000000D+00
    1.325104345703D+04-4.282207489014D-01-9.313225746155D-10 0.000000000000D+00
    3.470363281250D+03 3.574356079102D+00-9.313225746155D-10 0.000000000000D+00
19 15 02 14 10 45  0.0-1.183142885566D-04-9.094947017729D-13 3.780000000000D+04
    2.246685400391D+04-9.972000122070D-01 3.725290298462D-09 0.000000000000D+00
   -9.330363281250D+03 3.799991607666D-01-1.862645149231D-09 3.000000000000D+00
   -7.660526855469D+03-3.384838104248D+00-9.313225746155D-10 0.000000000000D+00
20 15 02 14 10 45  0.0-1.583639532328D-04-9.094947017729D-13 3.780000000000D+04
    1.736195507813D+04 1.084239006042D+00 1.862645149231D-09 0.000000000000D+00
   -1.580566308594D+04-8.620023727417D-01-9.313225746155D-10 2.000000000000D+00
    1.004652783203D+04-3.228575706482D+00-2.793967723846D-09 0.000000000000D+00
 6 15 02 14 10 45  0.0 6.256159394979D-05 0.000000000000D+00 3.840000000000D+04
    5.473290039063D+03-3.034973144531D-02 9.313225746155D-10 0.000000000000D+00
   -2.108030761719D+04 1.824076652527D+00 0.000000000000D+00-4.000000000000D+00
    1.328388427734D+04 2.900030136108D+00-2.793967723846D-09 0.000000000000D+00
16 15 02 14 10 45  0.0-2.129934728146D-05 1.818989403546D-12 3.939000000000D+04
    2.048429052734D+04 1.874218940735D+00 2.793967723846D-09 0.000000000000D+00
    3.018808105469D+03 8.277120590210D-01-1.862645149231D-09-1.000000000000D+00
   -1.498345898438D+04 2.727624893188D+00-0.000000000000D+00 0.000000000000D+00
 5 15 02 14 11 15  0.0 2.263113856316D-06 0.000000000000D+00 3.960000000000D+04
    1.146345947266D+04 5.675086975098D-01-9.313225746155D-10 0.000000000000D+00
    1.663037109375D+03 3.060491561890D+00 0.000000000000D+00 1.000000000000D+00
    2.271180371094D+04-5.094614028931D-01-2.793967723846D-09 0.000000000000D+00
 4 15 02 14 11 15  0.0 1.094527542591D-04 9.094947017729D-13 3.960000000000D+04
    1.006406005859D+04 4.535884857178D-01-1.862645149231D-09 0.000000000000D+00
    1.875985546875D+04 1.873128890991D+00 0.000000000000D+00 6.000000000000D+00
    1.405440673828D+04-2.826995849609D+00-9.313225746155D-10 0.000000000000D+00
 6 15 02 14 11 15  0.0 6.256345659494D-05 0.000000000000D+00 3.960000000000D+04
    5.735354980469D+03 3.467760086060D-01 0.000000000000D+00 0.000000000000D+00
   -1.721422900391D+04 2.433373451233D+00 0.000000000000D+00-4.000000000000D+00
    1.792296240234D+04 2.220951080322D+00-2.793967723846D-09 0.000000000000D+00
14 15 02 14 11 15  0.0 1.313453540206D-04 4.547473508865D-12 3.960000000000D+04
    6.174321777344D+03-2.704297065735D+00-1.862645149231D-09 0.000000000000D+00
    1.255595214844D+04-1.124907493591D+00 9.313225746155D-10-7.000000000000D+00
    2.132665722656D+04 1.438001632690D+00-9.313225746155D-10 0.000000000000D+00
15 15 02 14 11 15  0.0 3.899633884430D-05-0.000000000000D+00 3.960000000000D+04
    2.012082910156D+04-1.169932365417D+00-0.000000000000D+00 0.000000000000D+00
    1.222541210938D+04-6.677560806274D-01-0.000000000000D+00 0.000000000000D+00
    9.685492187500D+03 3.286251068115D+00-1.862645149231D-09 0.000000000000D+00
16 15 02 14 11 15  0.0-2.129469066858D-05 1.818989403546D-12 3.960000000000D+04
    2.336135058594D+04 1.282753944397D+00 1.862645149231D-09 0.000000000000D+00
    4.004626953125D+03 2.880973815918D-01-2.793967723846D-09-1.000000000000D+00
   -9.560918945313D+03 3.258537292480D+00-0.000000000000D+00 0.000000000000D+00
19 15 02 14 11 15  0.0-1.183161512017D-04-9.094947017729D-13 3.960000000000D+04
    2.014956298828D+04-1.536691665649D+00 2.793967723846D-09 0.000000000000D+00
   -8.090338378906D+03 1.014513015747D+00-2.793967723846D-09 3.000000000000D+00
   -1.337816699219D+04-2.926815032959D+00-0.000000000000D+00 0.000000000000D+00
20 15 02 14 11 15  0.0-1.583676785231D-04-9.094947017729D-13 3.960000000000D+04
    1.859477294922D+04 2.950029373169D-01 2.793967723846D-09 0.000000000000D+00
   -1.705933935547D+04-4.893007278442D-01-1.862645149231D-09 2.000000000000D+00
    3.922833984375D+03-3.531498908997D+00-2.793967723846D-09 0.000000000000D+00
21 15 02 14 11 15  0.0-1.277774572372D-06 1.818989403546D-12 3.960000000000D+04
    7.187232910156D+03 1.828987121582D+00 0.000000000000D+00 0.000000000000D+00
   -1.668765087891D+04-1.635332107544D+00 0.000000000000D+00 4.000000000000D+00
    1.789613525391D+04-2.262694358826D+00-2.793967723846D-09 0.000000000000D+00
 5 15 02 14 11 45  0.0 2.264045178890D-06 0.000000000000D+00 4.140000000000D+04
    1.282637011719D+04 9.240446090698D-01-9.313225746155D-10 0.000000000000D+00
    6.902168945313D+03 2.715627670288D+00 0.000000000000D+00 1.000000000000D+00
    2.092752734375D+04-1.460146903992D+00-1.862645149231D-09 0.000000000000D+00
 4 15 02 14 11 45  0.0 1.094555482268D-04 9.094947017729D-13 4.140000000000D+04
    1.094783691406D+04 4.878807067871D-01-1.862645149231D-09 0.000000000000D+00
    2.141816894531D+04 1.064056396484D+00 0.000000000000D+00 6.000000000000D+00
    8.488251464844D+03-3.317487716675D+00 0.000000000000D+00 0.000000000000D+00
 6 15 02 14 11 45  0.0 6.256438791752D-05 0.000000000000D+00 4.140000000000D+04
    6.785280761719D+03 8.291778564453D-01-0.000000000000D+00 0.000000000000D+00
   -1.247732373047D+04 2.782098770142D+00 0.000000000000D+00-4.000000000000D+00
    2.117566113281D+04 1.369581222534D+00-2.793967723846D-09 0.000000000000D+00
14 15 02 14 11 45  0.0 1.313537359238D-04 3.637978807092D-12 4.140000000000D+04
    9.311728515625D+02-3.075609207153D+00-1.862645149231D-09 0.000000000000D+00
    1.084316113281D+04-7.523603439331D-01 1.862645149231D-09-7.000000000000D+00
    2.305682568359D+04 4.717245101929D-01-9.313225746155D-10 0.000000000000D+00
